SEEDS II (CO-66)        
1 32791U 08021J   26068.92109284  .00023758  00000+0  84213-3 0  9995
2 32791  97.7519  62.3611 0001448 359.2618   0.8619 15.29097235972108
STARLINK-30130          
1 56697U 23067K   26067.97846141 -.00000248  00000+0  45743-6 0  9995
2 56697  43.0019 274.8532 0002189 263.0588  97.0015 15.26744788155336
